start=new Date('2023-06-06T00:00:00.000Z').valueOf();
sats=[{"INCLINATION":"53.0533","CENTER_NAME":"EARTH","MEAN_MOTION_DOT":"0.00016264","CLASSIFICATION_TYPE":"U","LAUNCH_DATE":"2021-04-07","RCS_SIZE":"LARGE","ELEMENT_SET_NO":"999","RA_OF_ASC_NODE":"356.1397","GP_ID":"233283941","TLE_LINE2":"2 48149  53.0533 356.1397 0000749  64.6655 295.4412 15.06435052120789","TIME_SYSTEM":"UTC","DECAY_DATE":null,"ARG_OF_PERICENTER":"64.6655","EPOCH":"2023-06-05T19:34:38.809344","MEAN_MOTION":"15.06435052","BSTAR":"0.00110720000000","PERIAPSIS":"546.587","REV_AT_EPOCH":"12078","FILE":"3925751","OBJECT_TYPE":"PAYLOAD","EPHEMERIS_TYPE":"0","REF_FRAME":"TEME","MEAN_ELEMENT_THEORY":"SGP4","OBJECT_ID":"2021-027BK","NORAD_CAT_ID":"48149","SITE":"AFETR","OBJECT_NAME":"STARLINK-2492","SEMIMAJOR_AXIS":"6925.241","MEAN_MOTION_DDOT":"0.0000000000000","MEAN_ANOMALY":"295.4412","APOAPSIS":"547.625","PERIOD":"95.590","COUNTRY_CODE":"US","ECCENTRICITY":"0.00007490","TLE_LINE1":"1 48149U 21027BK  23156.81572696  .00016264  00000-0  11072-2 0  9991"},{"NORAD_CAT_ID":"48150","OBJECT_ID":"2021-027BL","SEMIMAJOR_AXIS":"6925.279","MEAN_MOTION_DDOT":"0.0000000000000","MEAN_ANOMALY":"260.0131","SITE":"AFETR","OBJECT_NAME":"STARLINK-2493","REV_AT_EPOCH":"12079","PERIAPSIS":"546.515","BSTAR":"0.00085255000000","REF_FRAME":"TEME","MEAN_ELEMENT_THEORY":"SGP4","FILE":"3925751","OBJECT_TYPE":"PAYLOAD","EPHEMERIS_TYPE":"0","TLE_LINE1":"1 48150U 21027BL  23156.81941508  .00012448  00000-0  85255-3 0  9990","ECCENTRICITY":"0.00009080","APOAPSIS":"547.773","PERIOD":"95.591","COUNTRY_CODE":"US","MEAN_MOTION_DOT":"0.00012448","INCLINATION":"53.0535","CENTER_NAME":"EARTH","RCS_SIZE":"LARGE","CLASSIFICATION_TYPE":"U","LAUNCH_DATE":"2021-04-07","TLE_LINE2":"2 48150  53.0535 356.1273 0000908 100.0960 260.0131 15.06422667120792","ARG_OF_PERICENTER":"100.0960","MEAN_MOTION":"15.06422667","EPOCH":"2023-06-05T19:39:57.462912","DECAY_DATE":null,"TIME_SYSTEM":"UTC","ELEMENT_SET_NO":"999","GP_ID":"233284691","RA_OF_ASC_NODE":"356.1273"},{"ARG_OF_PERICENTER":"103.1301","MEAN_MOTION":"15.06430710","EPOCH":"2023-06-05T19:45:15.998112","DECAY_DATE":null,"TIME_SYSTEM":"UTC","TLE_LINE2":"2 48151  53.0546 356.1051 0001012 103.1301 256.9801 15.06430710120795","GP_ID":"233282940","RA_OF_ASC_NODE":"356.1051","ELEMENT_SET_NO":"999","RCS_SIZE":"LARGE","CLASSIFICATION_TYPE":"U","LAUNCH_DATE":"2021-04-07","MEAN_MOTION_DOT":"0.00018129","INCLINATION":"53.0546","CENTER_NAME":"EARTH","TLE_LINE1":"1 48151U 21027BM  23156.82310183  .00018129  00000-0  12318-2 0  9992","ECCENTRICITY":"0.00010120","PERIOD":"95.590","COUNTRY_CODE":"US","APOAPSIS":"547.820","SEMIMAJOR_AXIS":"6925.254","MEAN_MOTION_DDOT":"0.0000000000000","MEAN_ANOMALY":"256.9801","SITE":"AFETR","OBJECT_NAME":"STARLINK-2503","NORAD_CAT_ID":"48151","OBJECT_ID":"2021-027BM","REF_FRAME":"TEME","MEAN_ELEMENT_THEORY":"SGP4","OBJECT_TYPE":"PAYLOAD","FILE":"3925751","EPHEMERIS_TYPE":"0","REV_AT_EPOCH":"12079","PERIAPSIS":"546.419","BSTAR":"0.00123180000000"},{"RA_OF_ASC_NODE":"252.4091","GP_ID":"233254992","ELEMENT_SET_NO":"999","DECAY_DATE":null,"TIME_SYSTEM":"UTC","ARG_OF_PERICENTER":"69.8680","MEAN_MOTION":"15.06431608","EPOCH":"2023-06-05T12:46:36.615936","TLE_LINE2":"2 48276  53.0529 252.4091 0000732  69.8680 290.2387 15.06431608116851","CLASSIFICATION_TYPE":"U","LAUNCH_DATE":"2021-04-29","RCS_SIZE":"LARGE","INCLINATION":"53.0529","CENTER_NAME":"EARTH","MEAN_MOTION_DOT":"0.00021849","PERIOD":"95.590","COUNTRY_CODE":"US","APOAPSIS":"547.624","ECCENTRICITY":"0.00007320","TLE_LINE1":"1 48276U 21036A   23156.53236824  .00021849  00000-0  14799-2 0  9995","FILE":"3925691","OBJECT_TYPE":"PAYLOAD","EPHEMERIS_TYPE":"0","REF_FRAME":"TEME","MEAN_ELEMENT_THEORY":"SGP4","BSTAR":"0.00147990000000","PERIAPSIS":"546.610","REV_AT_EPOCH":"11685","SITE":"AFETR","OBJECT_NAME":"STARLINK-2567","SEMIMAJOR_AXIS":"6925.252","MEAN_MOTION_DDOT":"0.0000000000000","MEAN_ANOMALY":"290.2387","OBJECT_ID":"2021-036A","NORAD_CAT_ID":"48276"},{"DECAY_DATE":null,"TIME_SYSTEM":"UTC","EPOCH":"2023-06-05T14:24:08.558784","MEAN_MOTION":"15.06412778","ARG_OF_PERICENTER":"89.8747","TLE_LINE2":"2 48277  53.0525 217.1062 0001014  89.8747 270.2359 15.06412778117354","RA_OF_ASC_NODE":"217.1062","GP_ID":"233284204","ELEMENT_SET_NO":"999","LAUNCH_DATE":"2021-04-29","CLASSIFICATION_TYPE":"U","RCS_SIZE":"LARGE","INCLINATION":"53.0525","CENTER_NAME":"EARTH","MEAN_MOTION_DOT":"0.00005406","TLE_LINE1":"1 48277U 21036B   23156.60009906  .00005406  00000-0  38143-3 0  9994","ECCENTRICITY":"0.00010140","COUNTRY_CODE":"US","PERIOD":"95.591","APOAPSIS":"547.877","OBJECT_NAME":"STARLINK-2569","SITE":"AFETR","MEAN_ANOMALY":"270.2359","MEAN_MOTION_DDOT":"0.0000000000000","SEMIMAJOR_AXIS":"6925.309","OBJECT_ID":"2021-036B","NORAD_CAT_ID":"48277","EPHEMERIS_TYPE":"0","OBJECT_TYPE":"PAYLOAD","FILE":"3925751","MEAN_ELEMENT_THEORY":"SGP4","REF_FRAME":"TEME","BSTAR":"0.00038143000000","REV_AT_EPOCH":"11735","PERIAPSIS":"546.472"},{"DECAY_DATE":null,"TIME_SYSTEM":"UTC","EPOCH":"2023-06-05T12:06:48.830112","MEAN_MOTION":"15.06425509","ARG_OF_PERICENTER":"96.2788","TLE_LINE2":"2 48278  53.0534 232.6195 0000630  96.2788 263.8273 15.06425509117128","RA_OF_ASC_NODE":"232.6195","GP_ID":"233255994","ELEMENT_SET_NO":"999","LAUNCH_DATE":"2021-04-29","CLASSIFICATION_TYPE":"U","RCS_SIZE":"LARGE","INCLINATION":"53.0534","CENTER_NAME":"EARTH","MEAN_MOTION_DOT":"0.00013845","TLE_LINE1":"1 48278U 21036C   23156.50473183  .00013845  00000-0  94587-3 0  9996","ECCENTRICITY":"0.00006300","COUNTRY_CODE":"US","PERIOD":"95.591","APOAPSIS":"547.572","OBJECT_NAME":"STARLINK-2543","SITE":"AFETR","MEAN_ANOMALY":"263.8273","MEAN_MOTION_DDOT":"0.0000000000000","SEMIMAJOR_AXIS":"6925.270","OBJECT_ID":"2021-036C","NORAD_CAT_ID":"48278","EPHEMERIS_TYPE":"0","OBJECT_TYPE":"PAYLOAD","FILE":"3925691","MEAN_ELEMENT_THEORY":"SGP4","REF_FRAME":"TEME","BSTAR":"0.00094587000000","PERIAPSIS":"546.699","REV_AT_EPOCH":"11712"},{"TLE_LINE2":"2 48279  53.0533 231.9762 0000698  90.8869 269.2200 15.06427149117148","MEAN_MOTION":"15.06427149","EPOCH":"2023-06-05T15:07:15.361824","ARG_OF_PERICENTER":"90.8869","DECAY_DATE":null,"TIME_SYSTEM":"UTC","ELEMENT_SET_NO":"999","GP_ID":"233283702","RA_OF_ASC_NODE":"231.9762","MEAN_MOTION_DOT":"0.00012025","CENTER_NAME":"EARTH","INCLINATION":"53.0533","RCS_SIZE":"LARGE","LAUNCH_DATE":"2021-04-29","CLASSIFICATION_TYPE":"U","ECCENTRICITY":"0.00006980","TLE_LINE1":"1 48279U 21036D   23156.63003891  .00012025  00000-0  82416-3 0  9993","APOAPSIS":"547.614","COUNTRY_CODE":"US","PERIOD":"95.590","NORAD_CAT_ID":"48279","OBJECT_ID":"2021-036D","MEAN_ANOMALY":"269.2200","SEMIMAJOR_AXIS":"6925.265","MEAN_MOTION_DDOT":"0.0000000000000","OBJECT_NAME":"STARLINK-2580","SITE":"AFETR","PERIAPSIS":"546.647","REV_AT_EPOCH":"11714","BSTAR":"0.00082416000000","MEAN_ELEMENT_THEORY":"SGP4","REF_FRAME":"TEME","EPHEMERIS_TYPE":"0","FILE":"3925751","OBJECT_TYPE":"PAYLOAD"},{"MEAN_MOTION_DOT":"0.00021514","CENTER_NAME":"EARTH","INCLINATION":"53.0547","RCS_SIZE":"LARGE","LAUNCH_DATE":"2021-04-29","CLASSIFICATION_TYPE":"U","ELEMENT_SET_NO":"999","GP_ID":"233283954","RA_OF_ASC_NODE":"301.7025","TLE_LINE2":"2 48280  53.0547 301.7025 0000955  77.0524 283.0572 15.06436074116179","MEAN_MOTION":"15.06436074","EPOCH":"2023-06-05T16:33:31.006080","ARG_OF_PERICENTER":"77.0524","DECAY_DATE":null,"TIME_SYSTEM":"UTC","PERIAPSIS":"546.442","REV_AT_EPOCH":"11617","BSTAR":"0.00145740000000","MEAN_ELEMENT_THEORY":"SGP4","REF_FRAME":"TEME","EPHEMERIS_TYPE":"0","FILE":"3925751","OBJECT_TYPE":"PAYLOAD","NORAD_CAT_ID":"48280","OBJECT_ID":"2021-036E","MEAN_ANOMALY":"283.0572","MEAN_MOTION_DDOT":"0.0000000000000","SEMIMAJOR_AXIS":"6925.238","OBJECT_NAME":"STARLINK-2565","SITE":"AFETR","APOAPSIS":"547.764","COUNTRY_CODE":"US","PERIOD":"95.590","ECCENTRICITY":"0.00009550","TLE_LINE1":"1 48280U 21036E   23156.68994220  .00021514  00000-0  14574-2 0  9997"},{"TLE_LINE1":"1 48281U 21036F   23156.63649155  .00032326  00000-0  21760-2 0  9995","ECCENTRICITY":"0.00002170","APOAPSIS":"547.200","COUNTRY_CODE":"US","PERIOD":"95.589","NORAD_CAT_ID":"48281","OBJECT_ID":"2021-036F","MEAN_ANOMALY":"287.3526","MEAN_MOTION_DDOT":"0.0000000000000","SEMIMAJOR_AXIS":"6925.185","OBJECT_NAME":"STARLINK-2520","SITE":"AFETR","REV_AT_EPOCH":"11644","PERIAPSIS":"546.900","BSTAR":"0.00217600000000","MEAN_ELEMENT_THEORY":"SGP4","REF_FRAME":"TEME","EPHEMERIS_TYPE":"0","FILE":"3925751","OBJECT_TYPE":"PAYLOAD","TLE_LINE2":"2 48281  53.0542 281.9429 0000217  72.7487 287.3526 15.06453346116440","MEAN_MOTION":"15.06453346","EPOCH":"2023-06-05T15:16:32.869920","ARG_OF_PERICENTER":"72.7487","DECAY_DATE":null,"TIME_SYSTEM":"UTC","ELEMENT_SET_NO":"999","GP_ID":"233284704","RA_OF_ASC_NODE":"281.9429","MEAN_MOTION_DOT":"0.00032326","CENTER_NAME":"EARTH","INCLINATION":"53.0542","RCS_SIZE":"LARGE","LAUNCH_DATE":"2021-04-29","CLASSIFICATION_TYPE":"U"},{"APOAPSIS":"547.771","COUNTRY_CODE":"US","PERIOD":"95.590","ECCENTRICITY":"0.00009740","TLE_LINE1":"1 48282U 21036G   23156.65999579  .00020139  00000-0  13656-2 0  9990","BSTAR":"0.00136560000000","PERIAPSIS":"546.422","REV_AT_EPOCH":"11638","EPHEMERIS_TYPE":"0","FILE":"3925751","OBJECT_TYPE":"PAYLOAD","MEAN_ELEMENT_THEORY":"SGP4","REF_FRAME":"TEME","OBJECT_ID":"2021-036G","NORAD_CAT_ID":"48282","OBJECT_NAME":"STARLINK-2558","SITE":"AFETR","MEAN_ANOMALY":"300.5431","MEAN_MOTION_DDOT":"0.0000000000000","SEMIMAJOR_AXIS":"6925.231","ELEMENT_SET_NO":"999","RA_OF_ASC_NODE":"286.8395","GP_ID":"233282953","TLE_LINE2":"2 48282  53.0546 286.8395 0000974  59.5654 300.5431 15.06438309116388","DECAY_DATE":null,"TIME_SYSTEM":"UTC","EPOCH":"2023-06-05T15:50:23.636256","MEAN_MOTION":"15.06438309","ARG_OF_PERICENTER":"59.5654","INCLINATION":"53.0546","CENTER_NAME":"EARTH","MEAN_MOTION_DOT":"0.00020139","LAUNCH_DATE":"2021-04-29","CLASSIFICATION_TYPE":"U","RCS_SIZE":"LARGE"}];
